{
  "type": "FeatureCollection",
  "features": [
    {
      "type": "Feature",
      "properties": {
        "norad_id": 41556,
        "name": "ZIYUAN 3-2 (ZY 3-2)",
        "group": "resource",
        "lat": -34.6584473492637,
        "lon": -128.11309111099055,
        "alt_km": 502.3722891686266,
        "timestamp": "2025-12-08T19:31:48.485183+00:00",
        "meta_object_name": "ZIYUAN 3-2 (ZY 3-2)",
        "meta_object_id": "2016-033A",
        "meta_epoch": "2025-12-08T05:57:33.878592",
        "meta_mean_motion": 15.21403441,
        "meta_eccentricity": 0.00124035,
        "meta_inclination": 97.4045,
        "meta_ra_of_asc_node": 56.4892,
        "meta_arg_of_pericenter": 266.6629,
        "meta_mean_anomaly": 93.3188,
        "meta_ephemeris_type": 0,
        "meta_classification_type": "U",
        "meta_norad_cat_id": 41556,
        "meta_element_set_no": 999,
        "meta_rev_at_epoch": 52895,
        "meta_bstar": 0.00043507433,
        "meta_mean_motion_dot": 9.717e-05,
        "meta_mean_motion_ddot": 0,
        "tle_line1": "1 41556U 16033A   25342.24830878  .00009717  00000+0  43507-3 0  9995",
        "tle_line2": "2 41556  97.4045  56.4892 0012403 266.6629  93.3188 15.21403441528959"
      },
      "geometry": {
        "type": "Point",
        "coordinates": [
          -128.11309111099055,
          -34.6584473492637
        ]
      }
    },
    {
      "type": "Feature",
      "properties": {
        "norad_id": 41599,
        "name": "CARTOSAT-2C",
        "group": "resource",
        "lat": -9.985070733745907,
        "lon": -141.22054297370593,
        "alt_km": 515.3853322845034,
        "timestamp": "2025-12-08T19:31:48.485192+00:00",
        "meta_object_name": "CARTOSAT-2C",
        "meta_object_id": "2016-040A",
        "meta_epoch": "2025-12-08T06:03:05.884416",
        "meta_mean_motion": 15.1922753,
        "meta_eccentricity": 0.00109224,
        "meta_inclination": 97.4767,
        "meta_ra_of_asc_node": 39.5485,
        "meta_arg_of_pericenter": 78.7878,
        "meta_mean_anomaly": 281.4584,
        "meta_ephemeris_type": 0,
        "meta_classification_type": "U",
        "meta_norad_cat_id": 41599,
        "meta_element_set_no": 999,
        "meta_rev_at_epoch": 52472,
        "meta_bstar": 0.00033504605,
        "meta_mean_motion_dot": 7e-05,
        "meta_mean_motion_ddot": 0,
        "tle_line1": "1 41599U 16040A   25342.25215144  .00007000  00000+0  33505-3 0  9994",
        "tle_line2": "2 41599  97.4767  39.5485 0010922  78.7878 281.4584 15.19227530524720"
      },
      "geometry": {
        "type": "Point",
        "coordinates": [
          -141.22054297370593,
          -9.985070733745907
        ]
      }
    },
    {
      "type": "Feature",
      "properties": {
        "norad_id": 41601,
        "name": "SKYSAT-C1",
        "group": "resource",
        "lat": 57.2192215851749,
        "lon": 9.077450929666004,
        "alt_km": 461.3007554320857,
        "timestamp": "2025-12-08T19:31:48.485201+00:00",
        "meta_object_name": "SKYSAT-C1",
        "meta_object_id": "2016-040C",
        "meta_epoch": "2025-12-08T02:02:24.837216",
        "meta_mean_motion": 15.32463134,
        "meta_eccentricity": 0.00028858,
        "meta_inclination": 96.9826,
        "meta_ra_of_asc_node": 19.3613,
        "meta_arg_of_pericenter": 28.5503,
        "meta_mean_anomaly": 331.5898,
        "meta_ephemeris_type": 0,
        "meta_classification_type": "U",
        "meta_norad_cat_id": 41601,
        "meta_element_set_no": 999,
        "meta_rev_at_epoch": 52856,
        "meta_bstar": 0.00036161405,
        "meta_mean_motion_dot": 0.00011269,
        "meta_mean_motion_ddot": 0,
        "tle_line1": "1 41601U 16040C   25342.08500969  .00011269  00000+0  36161-3 0  9994",
        "tle_line2": "2 41601  96.9826  19.3613 0002885  28.5503 331.5898 15.32463134528568"
      },
      "geometry": {
        "type": "Point",
        "coordinates": [
          9.077450929666004,
          57.2192215851749
        ]
      }
    },
    {
      "type": "Feature",
      "properties": {
        "norad_id": 41603,
        "name": "LAPAN-A3",
        "group": "resource",
        "lat": -35.53300960399382,
        "lon": 155.37461113193774,
        "alt_km": 482.47433315271337,
        "timestamp": "2025-12-08T19:31:48.485211+00:00",
        "meta_object_name": "LAPAN-A3",
        "meta_object_id": "2016-040E",
        "meta_epoch": "2025-12-08T06:02:44.106432",
        "meta_mean_motion": 15.31497136,
        "meta_eccentricity": 0.00102141,
        "meta_inclination": 97.1427,
        "meta_ra_of_asc_node": 339.9713,
        "meta_arg_of_pericenter": 350.7899,
        "meta_mean_anomaly": 9.3154,
        "meta_ephemeris_type": 0,
        "meta_classification_type": "U",
        "meta_norad_cat_id": 41603,
        "meta_element_set_no": 999,
        "meta_rev_at_epoch": 52557,
        "meta_bstar": 0.00019647142,
        "meta_mean_motion_dot": 5.91e-05,
        "meta_mean_motion_ddot": 0,
        "tle_line1": "1 41603U 16040E   25342.25189938  .00005910  00000+0  19647-3 0  9990",
        "tle_line2": "2 41603  97.1427 339.9713 0010214 350.7899   9.3154 15.31497136525576"
      },
      "geometry": {
        "type": "Point",
        "coordinates": [
          155.37461113193774,
          -35.53300960399382
        ]
      }
    },
    {
      "type": "Feature",
      "properties": {
        "norad_id": 41604,
        "name": "BIROS",
        "group": "resource",
        "lat": -49.60653799552094,
        "lon": 22.478602818729264,
        "alt_km": 316.7360006865392,
        "timestamp": "2025-12-08T19:31:48.485220+00:00",
        "meta_object_name": "BIROS",
        "meta_object_id": "2016-040F",
        "meta_epoch": "2025-12-08T01:35:28.409856",
        "meta_mean_motion": 15.87749051,
        "meta_eccentricity": 0.00030511,
        "meta_inclination": 97.0682,
        "meta_ra_of_asc_node": 13.3176,
        "meta_arg_of_pericenter": 156.7291,
        "meta_mean_anomaly": 203.412,
        "meta_ephemeris_type": 0,
        "meta_classification_type": "U",
        "meta_norad_cat_id": 41604,
        "meta_element_set_no": 999,
        "meta_rev_at_epoch": 52798,
        "meta_bstar": 0.0006508575,
        "meta_mean_motion_dot": 0.00176409,
        "meta_mean_motion_ddot": 0,
        "tle_line1": "1 41604U 16040F   25342.06630104  .00176409  00000+0  65086-3 0  9996",
        "tle_line2": "2 41604  97.0682  13.3176 0003051 156.7291 203.4120 15.87749051527980"
      },
      "geometry": {
        "type": "Point",
        "coordinates": [
          22.478602818729264,
          -49.60653799552094
        ]
      }
    },
    {
      "type": "Feature",
      "properties": {
        "norad_id": 41727,
        "name": "GAOFEN-3",
        "group": "resource",
        "lat": 6.589876957773547,
        "lon": 169.4385560998063,
        "alt_km": 753.5385595082162,
        "timestamp": "2025-12-08T19:31:48.485229+00:00",
        "meta_object_name": "GAOFEN-3",
        "meta_object_id": "2016-049A",
        "meta_epoch": "2025-12-08T07:04:26.812128",
        "meta_mean_motion": 14.42212202,
        "meta_eccentricity": 0.00014892,
        "meta_inclination": 98.404,
        "meta_ra_of_asc_node": 347.9489,
        "meta_arg_of_pericenter": 69.1904,
        "meta_mean_anomaly": 290.9445,
        "meta_ephemeris_type": 0,
        "meta_classification_type": "U",
        "meta_norad_cat_id": 41727,
        "meta_element_set_no": 999,
        "meta_rev_at_epoch": 49113,
        "meta_bstar": 6.5518902e-05,
        "meta_mean_motion_dot": 1.72e-06,
        "meta_mean_motion_ddot": 0,
        "tle_line1": "1 41727U 16049A   25342.29475477  .00000172  00000+0  65519-4 0  9991",
        "tle_line2": "2 41727  98.4040 347.9489 0001489  69.1904 290.9445 14.42212202491134"
      },
      "geometry": {
        "type": "Point",
        "coordinates": [
          169.4385560998063,
          6.589876957773547
        ]
      }
    },
    {
      "type": "Feature",
      "properties": {
        "norad_id": 41771,
        "name": "SKYSAT-C4",
        "group": "resource",
        "lat": -37.09655705735781,
        "lon": -177.0906176363509,
        "alt_km": 446.39748724566107,
        "timestamp": "2025-12-08T19:31:48.485238+00:00",
        "meta_object_name": "SKYSAT-C4",
        "meta_object_id": "2016-058B",
        "meta_epoch": "2025-12-08T07:41:20.503680",
        "meta_mean_motion": 15.42059447,
        "meta_eccentricity": 0.00011026,
        "meta_inclination": 96.9372,
        "meta_ra_of_asc_node": 7.723,
        "meta_arg_of_pericenter": 133.4359,
        "meta_mean_anomaly": 226.6981,
        "meta_ephemeris_type": 0,
        "meta_classification_type": "U",
        "meta_norad_cat_id": 41771,
        "meta_element_set_no": 999,
        "meta_rev_at_epoch": 51599,
        "meta_bstar": 0.0004033987,
        "meta_mean_motion_dot": 0.00017165,
        "meta_mean_motion_ddot": 0,
        "tle_line1": "1 41771U 16058B   25342.32037620  .00017165  00000+0  40340-3 0  9992",
        "tle_line2": "2 41771  96.9372   7.7230 0001102 133.4359 226.6981 15.42059447515993"
      },
      "geometry": {
        "type": "Point",
        "coordinates": [
          -177.0906176363509,
          -37.09655705735781
        ]
      }
    }
  ]
}